[{"OBJECT_NAME":"VSP ROSE","OBJECT_ID":"2024-043AC","EPOCH":"2026-03-09T21:48:06.922944","MEAN_MOTION":15.27746075,"ECCENTRICITY":0.00099339,"INCLINATION":97.5443,"RA_OF_ASC_NODE":203.927,"ARG_OF_PERICENTER":232.2702,"MEAN_ANOMALY":127.7637,"EPHEMERIS_TYPE":0,"CLASSIFICATION_TYPE":"U","NORAD_CAT_ID":59124,"ELEMENT_SET_NO":999,"REV_AT_EPOCH":11182,"BSTAR":0.00025731354,"MEAN_MOTION_DOT":6.907e-5,"MEAN_MOTION_DDOT":0},{"OBJECT_NAME":"STARLINK-34329","OBJECT_ID":"2025-120A","EPOCH":"2026-03-09T12:38:11.594976","MEAN_MOTION":15.30190316,"ECCENTRICITY":0.00012062,"INCLINATION":53.1588,"RA_OF_ASC_NODE":117.2785,"ARG_OF_PERICENTER":91.5145,"MEAN_ANOMALY":268.5994,"EPHEMERIS_TYPE":0,"CLASSIFICATION_TYPE":"U","NORAD_CAT_ID":64256,"ELEMENT_SET_NO":999,"REV_AT_EPOCH":4390,"BSTAR":0.00078591055,"MEAN_MOTION_DOT":0.00022982,"MEAN_MOTION_DDOT":0}]
